NOAA 15                 
1 25338U 98030A   24350.10518578  .00000373  00000+0  17150-3 0  9999
2 25338  98.5530  13.3395 0010770 150.8066 209.3718 14.26825968383238
